{
  "type": "FeatureCollection",
  "features": [
    {
      "type": "Feature",
      "properties": {
        "norad_id": 29268,
        "name": "ARIRANG-2 (KOMPSAT-2)",
        "group": "resource",
        "lat": -58.21979880578707,
        "lon": -26.25306320932885,
        "alt_km": 687.5921822658029,
        "timestamp": "2025-12-03T15:48:02.758255+00:00",
        "meta_object_name": "ARIRANG-2 (KOMPSAT-2)",
        "meta_object_id": "2006-031A",
        "meta_epoch": "2025-12-03T08:42:07.055424",
        "meta_mean_motion": 14.64480029,
        "meta_eccentricity": 0.0014007,
        "meta_inclination": 97.8264,
        "meta_ra_of_asc_node": 166.2926,
        "meta_arg_of_pericenter": 340.1553,
        "meta_mean_anomaly": 140.5658,
        "meta_ephemeris_type": 0,
        "meta_classification_type": "U",
        "meta_norad_cat_id": 29268,
        "meta_element_set_no": 999,
        "meta_rev_at_epoch": 3281,
        "meta_bstar": 0.00012487909,
        "meta_mean_motion_dot": 6.17e-06,
        "meta_mean_motion_ddot": 0,
        "tle_line1": "1 29268U 06031A   25337.36258166  .00000617  00000+0  12488-3 0  9993",
        "tle_line2": "2 29268  97.8264 166.2926 0014007 340.1553 140.5658 14.64480029 32811"
      },
      "geometry": {
        "type": "Point",
        "coordinates": [
          -26.25306320932885,
          -58.21979880578707
        ]
      }
    },
    {
      "type": "Feature",
      "properties": {
        "norad_id": 29709,
        "name": "LAPAN-TUBSAT",
        "group": "resource",
        "lat": -22.35852489751366,
        "lon": 144.2596465745594,
        "alt_km": 618.8651106597126,
        "timestamp": "2025-12-03T15:48:02.758264+00:00",
        "meta_object_name": "LAPAN-TUBSAT",
        "meta_object_id": "2007-001A",
        "meta_epoch": "2025-12-03T06:48:40.732128",
        "meta_mean_motion": 14.85647348,
        "meta_eccentricity": 0.00135926,
        "meta_inclination": 98.1252,
        "meta_ra_of_asc_node": 327.2463,
        "meta_arg_of_pericenter": 102.0934,
        "meta_mean_anomaly": 258.1804,
        "meta_ephemeris_type": 0,
        "meta_classification_type": "U",
        "meta_norad_cat_id": 29709,
        "meta_element_set_no": 999,
        "meta_rev_at_epoch": 2206,
        "meta_bstar": 0.0001283542,
        "meta_mean_motion_dot": 1.056e-05,
        "meta_mean_motion_ddot": 0,
        "tle_line1": "1 29709U 07001A   25337.28380477  .00001056  00000+0  12835-3 0  9997",
        "tle_line2": "2 29709  98.1252 327.2463 0013592 102.0934 258.1804 14.85647348 22060"
      },
      "geometry": {
        "type": "Point",
        "coordinates": [
          144.2596465745594,
          -22.35852489751366
        ]
      }
    },
    {
      "type": "Feature",
      "properties": {
        "norad_id": 31113,
        "name": "HAIYANG-1B",
        "group": "resource",
        "lat": 71.23816904972622,
        "lon": -63.241673881877595,
        "alt_km": 771.3336854322934,
        "timestamp": "2025-12-03T15:48:02.758273+00:00",
        "meta_object_name": "HAIYANG-1B",
        "meta_object_id": "2007-010A",
        "meta_epoch": "2025-12-03T05:23:31.685856",
        "meta_mean_motion": 14.309598,
        "meta_eccentricity": 0.00145933,
        "meta_inclination": 98.3307,
        "meta_ra_of_asc_node": 321.8964,
        "meta_arg_of_pericenter": 64.2951,
        "meta_mean_anomaly": 295.9738,
        "meta_ephemeris_type": 0,
        "meta_classification_type": "U",
        "meta_norad_cat_id": 31113,
        "meta_element_set_no": 999,
        "meta_rev_at_epoch": 97260,
        "meta_bstar": 8.9917776e-05,
        "meta_mean_motion_dot": 1.95e-06,
        "meta_mean_motion_ddot": 0,
        "tle_line1": "1 31113U 07010A   25337.22467229  .00000195  00000+0  89918-4 0  9994",
        "tle_line2": "2 31113  98.3307 321.8964 0014593  64.2951 295.9738 14.30959800972609"
      },
      "geometry": {
        "type": "Point",
        "coordinates": [
          -63.241673881877595,
          71.23816904972622
        ]
      }
    },
    {
      "type": "Feature",
      "properties": {
        "norad_id": 31598,
        "name": "COSMO-SKYMED 1",
        "group": "resource",
        "lat": -10.435577746477259,
        "lon": -18.46398266991059,
        "alt_km": 584.9723578301328,
        "timestamp": "2025-12-03T15:48:02.758283+00:00",
        "meta_object_name": "COSMO-SKYMED 1",
        "meta_object_id": "2007-023A",
        "meta_epoch": "2025-12-03T08:31:46.667136",
        "meta_mean_motion": 14.95654693,
        "meta_eccentricity": 0.00014384,
        "meta_inclination": 97.8842,
        "meta_ra_of_asc_node": 162.6937,
        "meta_arg_of_pericenter": 81.2059,
        "meta_mean_anomaly": 278.9325,
        "meta_ephemeris_type": 0,
        "meta_classification_type": "U",
        "meta_norad_cat_id": 31598,
        "meta_element_set_no": 999,
        "meta_rev_at_epoch": 50,
        "meta_bstar": 0.00046502731,
        "meta_mean_motion_dot": 5.112e-05,
        "meta_mean_motion_ddot": 0,
        "tle_line1": "1 31598U 07023A   25337.35540124  .00005112  00000+0  46503-3 0  9991",
        "tle_line2": "2 31598  97.8842 162.6937 0001438  81.2059 278.9325 14.95654693   504"
      },
      "geometry": {
        "type": "Point",
        "coordinates": [
          -18.46398266991059,
          -10.435577746477259
        ]
      }
    },
    {
      "type": "Feature",
      "properties": {
        "norad_id": 31698,
        "name": "TERRASAR-X",
        "group": "resource",
        "lat": 18.251265789238715,
        "lon": 165.64400112042188,
        "alt_km": 508.5532284135161,
        "timestamp": "2025-12-03T15:48:02.758292+00:00",
        "meta_object_name": "TERRASAR-X",
        "meta_object_id": "2007-026A",
        "meta_epoch": "2025-12-02T13:47:56.806656",
        "meta_mean_motion": 15.19154546,
        "meta_eccentricity": 0.0001916,
        "meta_inclination": 97.4445,
        "meta_ra_of_asc_node": 342.105,
        "meta_arg_of_pericenter": 86.6664,
        "meta_mean_anomaly": 273.4789,
        "meta_ephemeris_type": 0,
        "meta_classification_type": "U",
        "meta_norad_cat_id": 31698,
        "meta_element_set_no": 999,
        "meta_rev_at_epoch": 2337,
        "meta_bstar": 8.5350444e-05,
        "meta_mean_motion_dot": 1.726e-05,
        "meta_mean_motion_ddot": 0,
        "tle_line1": "1 31698U 07026A   25336.57496304  .00001726  00000+0  85350-4 0  9999",
        "tle_line2": "2 31698  97.4445 342.1050 0001916  86.6664 273.4789 15.19154546 23376"
      },
      "geometry": {
        "type": "Point",
        "coordinates": [
          165.64400112042188,
          18.251265789238715
        ]
      }
    },
    {
      "type": "Feature",
      "properties": {
        "norad_id": 32060,
        "name": "WORLDVIEW-1 (WV-1)",
        "group": "resource",
        "lat": -14.20877316128929,
        "lon": 97.1505169010747,
        "alt_km": 497.33121577593465,
        "timestamp": "2025-12-03T15:48:02.758301+00:00",
        "meta_object_name": "WORLDVIEW-1 (WV-1)",
        "meta_object_id": "2007-041A",
        "meta_epoch": "2025-12-03T07:59:12.125472",
        "meta_mean_motion": 15.24439924,
        "meta_eccentricity": 7.519e-05,
        "meta_inclination": 97.3839,
        "meta_ra_of_asc_node": 94.948,
        "meta_arg_of_pericenter": 93.3039,
        "meta_mean_anomaly": 266.8285,
        "meta_ephemeris_type": 0,
        "meta_classification_type": "U",
        "meta_norad_cat_id": 32060,
        "meta_element_set_no": 999,
        "meta_rev_at_epoch": 1304,
        "meta_bstar": 0.00048185214,
        "meta_mean_motion_dot": 0.00011762,
        "meta_mean_motion_ddot": 0,
        "tle_line1": "1 32060U 07041A   25337.33277923  .00011762  00000+0  48185-3 0  9994",
        "tle_line2": "2 32060  97.3839  94.9480 0000751  93.3039 266.8285 15.24439924 13044"
      },
      "geometry": {
        "type": "Point",
        "coordinates": [
          97.1505169010747,
          -14.20877316128929
        ]
      }
    },
    {
      "type": "Feature",
      "properties": {
        "norad_id": 32289,
        "name": "YAOGAN-3",
        "group": "resource",
        "lat": -51.45413799446371,
        "lon": 174.4103143873718,
        "alt_km": 606.5259812949353,
        "timestamp": "2025-12-03T15:48:02.758310+00:00",
        "meta_object_name": "YAOGAN-3",
        "meta_object_id": "2007-055A",
        "meta_epoch": "2025-12-03T08:18:52.147296",
        "meta_mean_motion": 14.89782657,
        "meta_eccentricity": 0.00015073,
        "meta_inclination": 97.8376,
        "meta_ra_of_asc_node": 4.0568,
        "meta_arg_of_pericenter": 77.6656,
        "meta_mean_anomaly": 282.473,
        "meta_ephemeris_type": 0,
        "meta_classification_type": "U",
        "meta_norad_cat_id": 32289,
        "meta_element_set_no": 999,
        "meta_rev_at_epoch": 97669,
        "meta_bstar": 0.00038626836,
        "meta_mean_motion_dot": 3.65e-05,
        "meta_mean_motion_ddot": 0,
        "tle_line1": "1 32289U 07055A   25337.34643689  .00003650  00000+0  38627-3 0  9996",
        "tle_line2": "2 32289  97.8376   4.0568 0001507  77.6656 282.4730 14.89782657976699"
      },
      "geometry": {
        "type": "Point",
        "coordinates": [
          174.4103143873718,
          -51.45413799446371
        ]
      }
    }
  ]
}